{
  "type": "FeatureCollection",
  "features": [
    {
      "type": "Feature",
      "id": "AP_VSKP",
      "properties": {
        "id": "AP_VSKP",
        "name": "Visakhapatnam",
        "state": "Andhra Pradesh",
        "elevation_m": 45.0,
        "coastal_dist_km": 2.0,
        "typical_regime": "COASTAL",
        "neighbors": [
          "AP_EGOD",
          "OD_KPT"
        ],
        "lat": 17.6868,
        "lon": 83.2185
      },
      "geometry": {
        "type": "Polygon",
        "coordinates": [
          [
            [
              83.504,
              17.6868
            ],
            [
              83.553,
              17.8708
            ],
            [
              83.3612,
              17.9224
            ],
            [
              83.2185,
              17.8628
            ],
            [
              83.0758,
              17.9224
            ],
            [
              82.884,
              17.8708
            ],
            [
              82.933,
              17.6868
            ],
            [
              83.0585,
              17.5988
            ],
            [
              83.0758,
              17.4512
            ],
            [
              83.2185,
              17.3188
            ],
            [
              83.3612,
              17.4512
            ],
            [
              83.3785,
              17.5988
            ],
            [
              83.504,
              17.6868
            ]
          ]
        ]
      }
    },
    {
      "type": "Feature",
      "id": "AP_EGOD",
      "properties": {
        "id": "AP_EGOD",
        "name": "East Godavari",
        "state": "Andhra Pradesh",
        "elevation_m": 25.0,
        "coastal_dist_km": 5.0,
        "typical_regime": "COASTAL",
        "neighbors": [
          "AP_VSKP",
          "AP_KRI"
        ],
        "lat": 16.9891,
        "lon": 82.2475
      },
      "geometry": {
        "type": "Polygon",
        "coordinates": [
          [
            [
              82.6286,
              16.9891
            ],
            [
              82.5171,
              17.1379
            ],
            [
              82.3413,
              17.1446
            ],
            [
              82.2475,
              17.2354
            ],
            [
              82.0569,
              17.3048
            ],
            [
              81.9779,
              17.1379
            ],
            [
              82.0598,
              16.9891
            ],
            [
              82.0244,
              16.8659
            ],
            [
              82.0569,
              16.6734
            ],
            [
              82.2475,
              16.6914
            ],
            [
              82.3413,
              16.8336
            ],
            [
              82.4706,
              16.8659
            ],
            [
              82.6286,
              16.9891
            ]
          ]
        ]
      }
    },
    {
      "type": "Feature",
      "id": "AP_KRI",
      "properties": {
        "id": "AP_KRI",
        "name": "Krishna",
        "state": "Andhra Pradesh",
        "elevation_m": 18.0,
        "coastal_dist_km": 10.0,
        "typical_regime": "COASTAL",
        "neighbors": [
          "AP_EGOD",
          "AP_GNT",
          "TG_KMM"
        ],
        "lat": 16.1824,
        "lon": 81.1345
      },
      "geometry": {
        "type": "Polygon",
        "coordinates": [
          [
            [
              81.4693,
              16.1824
            ],
            [
              81.3056,
              16.2773
            ],
            [
              81.2503,
              16.3751
            ],
            [
              81.1345,
              16.5367
            ],
            [
              80.9671,
              16.4608
            ],
            [
              80.9634,
              16.2773
            ],
            [
              80.9028,
              16.1824
            ],
            [
              80.815,
              16.0053
            ],
            [
              80.9671,
              15.904
            ],
            [
              81.1345,
              15.9927
            ],
            [
              81.2503,
              15.9897
            ],
            [
              81.454,
              16.0053
            ],
            [
              81.4693,
              16.1824
            ]
          ]
        ]
      }
    },
    {
      "type": "Feature",
      "id": "AP_GNT",
      "properties": {
        "id": "AP_GNT",
        "name": "Guntur",
        "state": "Andhra Pradesh",
        "elevation_m": 33.0,
        "coastal_dist_km": 25.0,
        "typical_regime": "ACTIVE_MONSOON",
        "neighbors": [
          "AP_KRI",
          "AP_ATP",
          "TG_KMM"
        ],
        "lat": 16.3067,
        "lon": 80.4365
      },
      "geometry": {
        "type": "Polygon",
        "coordinates": [
          [
            [
              80.6511,
              16.3067
            ],
            [
              80.619,
              16.4079
            ],
            [
              80.6126,
              16.5994
            ],
            [
              80.4365,
              16.6484
            ],
            [
              80.3292,
              16.4851
            ],
            [
              80.254,
              16.4079
            ],
            [
              80.0843,
              16.3067
            ],
            [
              80.1282,
              16.1359
            ],
            [
              80.3292,
              16.1283
            ],
            [
              80.4365,
              16.1044
            ],
            [
              80.6126,
              16.014
            ],
            [
              80.7448,
              16.1359
            ],
            [
              80.6511,
              16.3067
            ]
          ]
        ]
      }
    },
    {
      "type": "Feature",
      "id": "AP_ATP",
      "properties": {
        "id": "AP_ATP",
        "name": "Anantapur",
        "state": "Andhra Pradesh",
        "elevation_m": 335.0,
        "coastal_dist_km": 280.0,
        "typical_regime": "BREAK_MONSOON",
        "neighbors": [
          "AP_GNT",
          "TG_HYD"
        ],
        "lat": 14.6819,
        "lon": 77.6006
      },
      "geometry": {
        "type": "Polygon",
        "coordinates": [
          [
            [
              77.7941,
              14.6819
            ],
            [
              77.8844,
              14.8404
            ],
            [
              77.785,
              14.9909
            ],
            [
              77.6006,
              14.9089
            ],
            [
              77.5038,
              14.844
            ],
            [
              77.3168,
              14.8404
            ],
            [
              77.2317,
              14.6819
            ],
            [
              77.3974,
              14.5684
            ],
            [
              77.5038,
              14.5198
            ],
            [
              77.6006,
              14.3649
            ],
            [
              77.785,
              14.3729
            ],
            [
              77.8038,
              14.5684
            ],
            [
              77.7941,
              14.6819
            ]
          ]
        ]
      }
    },
    {
      "type": "Feature",
      "id": "OD_PURI",
      "properties": {
        "id": "OD_PURI",
        "name": "Puri",
        "state": "Odisha",
        "elevation_m": 12.0,
        "coastal_dist_km": 1.0,
        "typical_regime": "DEPRESSION_LOW",
        "neighbors": [
          "OD_KHD",
          "OD_BLS"
        ],
        "lat": 19.8135,
        "lon": 85.8312
      },
      "geometry": {
        "type": "Polygon",
        "coordinates": [
          [
            [
              86.1423,
              19.8135
            ],
            [
              86.1679,
              19.9964
            ],
            [
              85.9648,
              20.0312
            ],
            [
              85.8312,
              19.9917
            ],
            [
              85.6757,
              20.0669
            ],
            [
              85.4945,
              19.9964
            ],
            [
              85.564,
              19.8135
            ],
            [
              85.6671,
              19.7244
            ],
            [
              85.6757,
              19.5601
            ],
            [
              85.8312,
              19.4477
            ],
            [
              85.9648,
              19.5958
            ],
            [
              85.9953,
              19.7244
            ],
            [
              86.1423,
              19.8135
            ]
          ]
        ]
      }
    },
    {
      "type": "Feature",
      "id": "OD_KHD",
      "properties": {
        "id": "OD_KHD",
        "name": "Khordha (Bhubaneswar)",
        "state": "Odisha",
        "elevation_m": 45.0,
        "coastal_dist_km": 40.0,
        "typical_regime": "DEPRESSION_LOW",
        "neighbors": [
          "OD_PURI",
          "OD_CTC"
        ],
        "lat": 20.2961,
        "lon": 85.8245
      },
      "geometry": {
        "type": "Polygon",
        "coordinates": [
          [
            [
              86.2167,
              20.2961
            ],
            [
              86.0804,
              20.4347
            ],
            [
              85.9184,
              20.4486
            ],
            [
              85.8245,
              20.5629
            ],
            [
              85.6284,
              20.6147
            ],
            [
              85.5686,
              20.4347
            ],
            [
              85.6367,
              20.2961
            ],
            [
              85.5781,
              20.1627
            ],
            [
              85.6284,
              19.9775
            ],
            [
              85.8245,
              20.0189
            ],
            [
              85.9184,
              20.1436
            ],
            [
              86.0709,
              20.1627
            ],
            [
              86.2167,
              20.2961
            ]
          ]
        ]
      }
    },
    {
      "type": "Feature",
      "id": "OD_CTC",
      "properties": {
        "id": "OD_CTC",
        "name": "Cuttack",
        "state": "Odisha",
        "elevation_m": 36.0,
        "coastal_dist_km": 65.0,
        "typical_regime": "DEPRESSION_LOW",
        "neighbors": [
          "OD_KHD",
          "OD_BLS"
        ],
        "lat": 20.4625,
        "lon": 85.883
      },
      "geometry": {
        "type": "Polygon",
        "coordinates": [
          [
            [
              86.206,
              20.4625
            ],
            [
              86.0503,
              20.553
            ],
            [
              86.0118,
              20.6715
            ],
            [
              85.883,
              20.8255
            ],
            [
              85.7215,
              20.7246
            ],
            [
              85.7157,
              20.553
            ],
            [
              85.6254,
              20.4625
            ],
            [
              85.5475,
              20.281
            ],
            [
              85.7215,
              20.2004
            ],
            [
              85.883,
              20.2815
            ],
            [
              86.0118,
              20.2535
            ],
            [
              86.2185,
              20.281
            ],
            [
              86.206,
              20.4625
            ]
          ]
        ]
      }
    },
    {
      "type": "Feature",
      "id": "OD_BLS",
      "properties": {
        "id": "OD_BLS",
        "name": "Balasore",
        "state": "Odisha",
        "elevation_m": 16.0,
        "coastal_dist_km": 15.0,
        "typical_regime": "DEPRESSION_LOW",
        "neighbors": [
          "OD_PURI",
          "OD_CTC",
          "WB_S24P"
        ],
        "lat": 21.4934,
        "lon": 86.9135
      },
      "geometry": {
        "type": "Polygon",
        "coordinates": [
          [
            [
              87.1204,
              21.4934
            ],
            [
              87.1165,
              21.6025
            ],
            [
              87.1024,
              21.7978
            ],
            [
              86.9135,
              21.8193
            ],
            [
              86.81,
              21.6601
            ],
            [
              86.7105,
              21.6025
            ],
            [
              86.5358,
              21.4934
            ],
            [
              86.6102,
              21.3305
            ],
            [
              86.81,
              21.3267
            ],
            [
              86.9135,
              21.2753
            ],
            [
              87.1024,
              21.189
            ],
            [
              87.2168,
              21.3305
            ],
            [
              87.1204,
              21.4934
            ]
          ]
        ]
      }
    },
    {
      "type": "Feature",
      "id": "OD_KPT",
      "properties": {
        "id": "OD_KPT",
        "name": "Koraput",
        "state": "Odisha",
        "elevation_m": 870.0,
        "coastal_dist_km": 130.0,
        "typical_regime": "OROGRAPHIC",
        "neighbors": [
          "AP_VSKP",
          "TG_KMM"
        ],
        "lat": 18.8135,
        "lon": 82.7118
      },
      "geometry": {
        "type": "Polygon",
        "coordinates": [
          [
            [
              82.9219,
              18.8135
            ],
            [
              83.0175,
              18.9806
            ],
            [
              82.8941,
              19.1124
            ],
            [
              82.7118,
              19.0233
            ],
            [
              82.6068,
              18.9857
            ],
            [
              82.4061,
              18.9806
            ],
            [
              82.3472,
              18.8135
            ],
            [
              82.5198,
              18.7086
            ],
            [
              82.6068,
              18.6413
            ],
            [
              82.7118,
              18.4793
            ],
            [
              82.8941,
              18.5146
            ],
            [
              82.9038,
              18.7086
            ],
            [
              82.9219,
              18.8135
            ]
          ]
        ]
      }
    },
    {
      "type": "Feature",
      "id": "TG_HYD",
      "properties": {
        "id": "TG_HYD",
        "name": "Hyderabad",
        "state": "Telangana",
        "elevation_m": 542.0,
        "coastal_dist_km": 290.0,
        "typical_regime": "ACTIVE_MONSOON",
        "neighbors": [
          "TG_WRG",
          "TG_NZB",
          "AP_ATP"
        ],
        "lat": 17.385,
        "lon": 78.4867
      },
      "geometry": {
        "type": "Polygon",
        "coordinates": [
          [
            [
              78.814,
              17.385
            ],
            [
              78.8126,
              17.5646
            ],
            [
              78.6081,
              17.5856
            ],
            [
              78.4867,
              17.5699
            ],
            [
              78.3231,
              17.6555
            ],
            [
              78.1608,
              17.5646
            ],
            [
              78.2439,
              17.385
            ],
            [
              78.3189,
              17.2926
            ],
            [
              78.3231,
              17.1145
            ],
            [
              78.4867,
              17.0259
            ],
            [
              78.6081,
              17.1844
            ],
            [
              78.6545,
              17.2926
            ],
            [
              78.814,
              17.385
            ]
          ]
        ]
      }
    },
    {
      "type": "Feature",
      "id": "TG_WRG",
      "properties": {
        "id": "TG_WRG",
        "name": "Warangal",
        "state": "Telangana",
        "elevation_m": 266.0,
        "coastal_dist_km": 210.0,
        "typical_regime": "ACTIVE_MONSOON",
        "neighbors": [
          "TG_HYD",
          "TG_KMM",
          "TG_KRM"
        ],
        "lat": 17.9689,
        "lon": 79.5941
      },
      "geometry": {
        "type": "Polygon",
        "coordinates": [
          [
            [
              79.9796,
              17.9689
            ],
            [
              79.8276,
              18.0971
            ],
            [
              79.6873,
              18.1224
            ],
            [
              79.5941,
              18.2565
            ],
            [
              79.4013,
              18.2865
            ],
            [
              79.3606,
              18.0971
            ],
            [
              79.4077,
              17.9689
            ],
            [
              79.3323,
              17.8251
            ],
            [
              79.4013,
              17.6513
            ],
            [
              79.5941,
              17.7125
            ],
            [
              79.6873,
              17.8154
            ],
            [
              79.8559,
              17.8251
            ],
            [
              79.9796,
              17.9689
            ]
          ]
        ]
      }
    },
    {
      "type": "Feature",
      "id": "TG_KMM",
      "properties": {
        "id": "TG_KMM",
        "name": "Khammam",
        "state": "Telangana",
        "elevation_m": 107.0,
        "coastal_dist_km": 140.0,
        "typical_regime": "ACTIVE_MONSOON",
        "neighbors": [
          "TG_WRG",
          "AP_KRI",
          "AP_GNT",
          "OD_KPT"
        ],
        "lat": 17.2473,
        "lon": 80.1514
      },
      "geometry": {
        "type": "Polygon",
        "coordinates": [
          [
            [
              80.447,
              17.2473
            ],
            [
              80.3115,
              17.3356
            ],
            [
              80.2884,
              17.4739
            ],
            [
              80.1514,
              17.6147
            ],
            [
              80.0036,
              17.4918
            ],
            [
              79.9913,
              17.3356
            ],
            [
              79.8774,
              17.2473
            ],
            [
              79.8182,
              17.0636
            ],
            [
              80.0036,
              17.0028
            ],
            [
              80.1514,
              17.0707
            ],
            [
              80.2884,
              17.0207
            ],
            [
              80.4846,
              17.0636
            ],
            [
              80.447,
              17.2473
            ]
          ]
        ]
      }
    },
    {
      "type": "Feature",
      "id": "TG_NZB",
      "properties": {
        "id": "TG_NZB",
        "name": "Nizamabad",
        "state": "Telangana",
        "elevation_m": 395.0,
        "coastal_dist_km": 360.0,
        "typical_regime": "ACTIVE_MONSOON",
        "neighbors": [
          "TG_HYD",
          "TG_KRM",
          "MH_NGP"
        ],
        "lat": 18.6725,
        "lon": 78.0941
      },
      "geometry": {
        "type": "Polygon",
        "coordinates": [
          [
            [
              78.2871,
              18.6725
            ],
            [
              78.3103,
              18.7908
            ],
            [
              78.2847,
              18.9853
            ],
            [
              78.0941,
              18.98
            ],
            [
              77.9976,
              18.8308
            ],
            [
              77.8779,
              18.7908
            ],
            [
              77.7128,
              18.6725
            ],
            [
              77.813,
              18.5188
            ],
            [
              77.9976,
              18.5142
            ],
            [
              78.0941,
              18.436
            ],
            [
              78.2847,
              18.3597
            ],
            [
              78.3752,
              18.5188
            ],
            [
              78.2871,
              18.6725
            ]
          ]
        ]
      }
    },
    {
      "type": "Feature",
      "id": "TG_KRM",
      "properties": {
        "id": "TG_KRM",
        "name": "Karimnagar",
        "state": "Telangana",
        "elevation_m": 265.0,
        "coastal_dist_km": 280.0,
        "typical_regime": "ACTIVE_MONSOON",
        "neighbors": [
          "TG_NZB",
          "TG_WRG",
          "MH_NGP"
        ],
        "lat": 18.4386,
        "lon": 79.1288
      },
      "geometry": {
        "type": "Polygon",
        "coordinates": [
          [
            [
              79.3543,
              18.4386
            ],
            [
              79.4469,
              18.6128
            ],
            [
              79.3028,
              18.7244
            ],
            [
              79.1288,
              18.6342
            ],
            [
              79.016,
              18.6239
            ],
            [
              78.8107,
              18.6128
            ],
            [
              78.7809,
              18.4386
            ],
            [
              78.9503,
              18.3408
            ],
            [
              79.016,
              18.2533
            ],
            [
              79.1288,
              18.0902
            ],
            [
              79.3028,
              18.1528
            ],
            [
              79.3073,
              18.3408
            ],
            [
              79.3543,
              18.4386
            ]
          ]
        ]
      }
    },
    {
      "type": "Feature",
      "id": "KL_WYD",
      "properties": {
        "id": "KL_WYD",
        "name": "Wayanad",
        "state": "Kerala",
        "elevation_m": 920.0,
        "coastal_dist_km": 55.0,
        "typical_regime": "OROGRAPHIC",
        "neighbors": [
          "KL_KKD",
          "KL_IDK"
        ],
        "lat": 11.6854,
        "lon": 76.132
      },
      "geometry": {
        "type": "Polygon",
        "coordinates": [
          [
            [
              76.4691,
              11.6854
            ],
            [
              76.4401,
              11.8596
            ],
            [
              76.2412,
              11.8706
            ],
            [
              76.132,
              11.881
            ],
            [
              75.9634,
              11.9713
            ],
            [
              75.8239,
              11.8596
            ],
            [
              75.9136,
              11.6854
            ],
            [
              75.959,
              11.5876
            ],
            [
              75.9634,
              11.3995
            ],
            [
              76.132,
              11.337
            ],
            [
              76.2412,
              11.5002
            ],
            [
              76.305,
              11.5876
            ],
            [
              76.4691,
              11.6854
            ]
          ]
        ]
      }
    },
    {
      "type": "Feature",
      "id": "KL_IDK",
      "properties": {
        "id": "KL_IDK",
        "name": "Idukki",
        "state": "Kerala",
        "elevation_m": 1200.0,
        "coastal_dist_km": 70.0,
        "typical_regime": "OROGRAPHIC",
        "neighbors": [
          "KL_WYD",
          "KL_EKM",
          "KL_TVM"
        ],
        "lat": 9.8494,
        "lon": 76.9804
      },
      "geometry": {
        "type": "Polygon",
        "coordinates": [
          [
            [
              77.347,
              9.8494
            ],
            [
              77.1882,
              9.9676
            ],
            [
              77.0732,
              10.0077
            ],
            [
              76.9804,
              10.157
            ],
            [
              76.7971,
              10.1622
            ],
            [
              76.7726,
              9.9676
            ],
            [
              76.7948,
              9.8494
            ],
            [
              76.71,
              9.6956
            ],
            [
              76.7971,
              9.5366
            ],
            [
              76.9804,
              9.613
            ],
            [
              77.0732,
              9.6911
            ],
            [
              77.2508,
              9.6956
            ],
            [
              77.347,
              9.8494
            ]
          ]
        ]
      }
    },
    {
      "type": "Feature",
      "id": "KL_EKM",
      "properties": {
        "id": "KL_EKM",
        "name": "Ernakulam (Kochi)",
        "state": "Kerala",
        "elevation_m": 4.0,
        "coastal_dist_km": 2.0,
        "typical_regime": "COASTAL",
        "neighbors": [
          "KL_IDK",
          "KL_KKD",
          "KL_TVM"
        ],
        "lat": 9.9816,
        "lon": 76.2999
      },
      "geometry": {
        "type": "Polygon",
        "coordinates": [
          [
            [
              76.5655,
              9.9816
            ],
            [
              76.4552,
              10.0699
            ],
            [
              76.4433,
              10.2262
            ],
            [
              76.2999,
              10.349
            ],
            [
              76.1671,
              10.2081
            ],
            [
              76.1446,
              10.0699
            ],
            [
              76.0131,
              9.9816
            ],
            [
              75.9768,
              9.7979
            ],
            [
              76.1671,
              9.7551
            ],
            [
              76.2999,
              9.805
            ],
            [
              76.4433,
              9.737
            ],
            [
              76.623,
              9.7979
            ],
            [
              76.5655,
              9.9816
            ]
          ]
        ]
      }
    },
    {
      "type": "Feature",
      "id": "KL_KKD",
      "properties": {
        "id": "KL_KKD",
        "name": "Kozhikode",
        "state": "Kerala",
        "elevation_m": 10.0,
        "coastal_dist_km": 3.0,
        "typical_regime": "COASTAL",
        "neighbors": [
          "KL_WYD",
          "KL_EKM"
        ],
        "lat": 11.2588,
        "lon": 75.7804
      },
      "geometry": {
        "type": "Polygon",
        "coordinates": [
          [
            [
              75.9611,
              11.2588
            ],
            [
              76.0069,
              11.3871
            ],
            [
              75.9674,
              11.5764
            ],
            [
              75.7804,
              11.5463
            ],
            [
              75.69,
              11.4123
            ],
            [
              75.5539,
              11.3871
            ],
            [
              75.4065,
              11.2588
            ],
            [
              75.5266,
              11.1151
            ],
            [
              75.69,
              11.1053
            ],
            [
              75.7804,
              11.0023
            ],
            [
              75.9674,
              10.9412
            ],
            [
              76.0342,
              11.1151
            ],
            [
              75.9611,
              11.2588
            ]
          ]
        ]
      }
    },
    {
      "type": "Feature",
      "id": "KL_TVM",
      "properties": {
        "id": "KL_TVM",
        "name": "Thiruvananthapuram",
        "state": "Kerala",
        "elevation_m": 15.0,
        "coastal_dist_km": 3.0,
        "typical_regime": "COASTAL",
        "neighbors": [
          "KL_IDK",
          "KL_EKM"
        ],
        "lat": 8.5241,
        "lon": 76.9366
      },
      "geometry": {
        "type": "Polygon",
        "coordinates": [
          [
            [
              77.1709,
              8.5241
            ],
            [
              77.2511,
              8.7037
            ],
            [
              77.0945,
              8.7945
            ],
            [
              76.9366,
              8.7089
            ],
            [
              76.8194,
              8.7248
            ],
            [
              76.6221,
              8.7037
            ],
            [
              76.6209,
              8.5241
            ],
            [
              76.7747,
              8.4317
            ],
            [
              76.8194,
              8.3234
            ],
            [
              76.9366,
              8.1649
            ],
            [
              77.0945,
              8.2537
            ],
            [
              77.0985,
              8.4317
            ],
            [
              77.1709,
              8.5241
            ]
          ]
        ]
      }
    },
    {
      "type": "Feature",
      "id": "MH_MUM",
      "properties": {
        "id": "MH_MUM",
        "name": "Mumbai Suburban",
        "state": "Maharashtra",
        "elevation_m": 14.0,
        "coastal_dist_km": 2.0,
        "typical_regime": "COASTAL",
        "neighbors": [
          "MH_RTG",
          "MH_PUN"
        ],
        "lat": 19.076,
        "lon": 72.8777
      },
      "geometry": {
        "type": "Polygon",
        "coordinates": [
          [
            [
              73.243,
              19.076
            ],
            [
              73.1839,
              19.2431
            ],
            [
              72.9829,
              19.2482
            ],
            [
              72.8777,
              19.2859
            ],
            [
              72.6951,
              19.375
            ],
            [
              72.5715,
              19.2431
            ],
            [
              72.6674,
              19.076
            ],
            [
              72.6854,
              18.9711
            ],
            [
              72.6951,
              18.777
            ],
            [
              72.8777,
              18.7419
            ],
            [
              72.9829,
              18.9038
            ],
            [
              73.07,
              18.9711
            ],
            [
              73.243,
              19.076
            ]
          ]
        ]
      }
    },
    {
      "type": "Feature",
      "id": "MH_RTG",
      "properties": {
        "id": "MH_RTG",
        "name": "Ratnagiri",
        "state": "Maharashtra",
        "elevation_m": 35.0,
        "coastal_dist_km": 1.0,
        "typical_regime": "OROGRAPHIC",
        "neighbors": [
          "MH_MUM",
          "MH_KLP",
          "MH_PUN"
        ],
        "lat": 16.9902,
        "lon": 73.312
      },
      "geometry": {
        "type": "Polygon",
        "coordinates": [
          [
            [
              73.6795,
              16.9902
            ],
            [
              73.5095,
              17.0992
            ],
            [
              73.4127,
              17.157
            ],
            [
              73.312,
              17.3161
            ],
            [
              73.1283,
              17.2945
            ],
            [
              73.1145,
              17.0992
            ],
            [
              73.1106,
              16.9902
            ],
            [
              73.0169,
              16.8272
            ],
            [
              73.1283,
              16.6859
            ],
            [
              73.312,
              16.7721
            ],
            [
              73.4127,
              16.8234
            ],
            [
              73.6071,
              16.8272
            ],
            [
              73.6795,
              16.9902
            ]
          ]
        ]
      }
    },
    {
      "type": "Feature",
      "id": "MH_PUN",
      "properties": {
        "id": "MH_PUN",
        "name": "Pune",
        "state": "Maharashtra",
        "elevation_m": 560.0,
        "coastal_dist_km": 120.0,
        "typical_regime": "ACTIVE_MONSOON",
        "neighbors": [
          "MH_MUM",
          "MH_RTG",
          "MH_KLP"
        ],
        "lat": 18.5204,
        "lon": 73.8567
      },
      "geometry": {
        "type": "Polygon",
        "coordinates": [
          [
            [
              74.1112,
              18.5204
            ],
            [
              74.0221,
              18.6109
            ],
            [
              74.0163,
              18.7826
            ],
            [
              73.8567,
              18.8834
            ],
            [
              73.7295,
              18.7294
            ],
            [
              73.6913,
              18.6109
            ],
            [
              73.5375,
              18.5204
            ],
            [
              73.5252,
              18.3389
            ],
            [
              73.7295,
              18.3114
            ],
            [
              73.8567,
              18.3394
            ],
            [
              74.0163,
              18.2582
            ],
            [
              74.1882,
              18.3389
            ],
            [
              74.1112,
              18.5204
            ]
          ]
        ]
      }
    },
    {
      "type": "Feature",
      "id": "MH_KLP",
      "properties": {
        "id": "MH_KLP",
        "name": "Kolhapur",
        "state": "Maharashtra",
        "elevation_m": 569.0,
        "coastal_dist_km": 110.0,
        "typical_regime": "ACTIVE_MONSOON",
        "neighbors": [
          "MH_RTG",
          "MH_PUN"
        ],
        "lat": 16.705,
        "lon": 74.2433
      },
      "geometry": {
        "type": "Polygon",
        "coordinates": [
          [
            [
              74.4272,
              16.705
            ],
            [
              74.494,
              16.8436
            ],
            [
              74.4353,
              17.0236
            ],
            [
              74.2433,
              16.9717
            ],
            [
              74.1513,
              16.8575
            ],
            [
              73.9926,
              16.8436
            ],
            [
              73.8592,
              16.705
            ],
            [
              74.0021,
              16.5716
            ],
            [
              74.1513,
              16.5525
            ],
            [
              74.2433,
              16.4277
            ],
            [
              74.4353,
              16.3864
            ],
            [
              74.4845,
              16.5716
            ],
            [
              74.4272,
              16.705
            ]
          ]
        ]
      }
    },
    {
      "type": "Feature",
      "id": "MH_NGP",
      "properties": {
        "id": "MH_NGP",
        "name": "Nagpur",
        "state": "Maharashtra",
        "elevation_m": 310.0,
        "coastal_dist_km": 680.0,
        "typical_regime": "ACTIVE_MONSOON",
        "neighbors": [
          "TG_NZB",
          "TG_KRM",
          "MP_JBL"
        ],
        "lat": 21.1458,
        "lon": 79.0882
      },
      "geometry": {
        "type": "Polygon",
        "coordinates": [
          [
            [
              79.3578,
              21.1458
            ],
            [
              79.4278,
              21.3287
            ],
            [
              79.245,
              21.3992
            ],
            [
              79.0882,
              21.324
            ],
            [
              78.9534,
              21.3635
            ],
            [
              78.7486,
              21.3287
            ],
            [
              78.7745,
              21.1458
            ],
            [
              78.9227,
              21.0567
            ],
            [
              78.9534,
              20.9281
            ],
            [
              79.0882,
              20.78
            ],
            [
              79.245,
              20.8924
            ],
            [
              79.2537,
              21.0567
            ],
            [
              79.3578,
              21.1458
            ]
          ]
        ]
      }
    },
    {
      "type": "Feature",
      "id": "WB_KOL",
      "properties": {
        "id": "WB_KOL",
        "name": "Kolkata",
        "state": "West Bengal",
        "elevation_m": 9.0,
        "coastal_dist_km": 70.0,
        "typical_regime": "DEPRESSION_LOW",
        "neighbors": [
          "WB_S24P",
          "WB_MSD"
        ],
        "lat": 22.5726,
        "lon": 88.3639
      },
      "geometry": {
        "type": "Polygon",
        "coordinates": [
          [
            [
              88.7504,
              22.5726
            ],
            [
              88.6611,
              22.7311
            ],
            [
              88.4652,
              22.7347
            ],
            [
              88.3639,
              22.7997
            ],
            [
              88.1707,
              22.8816
            ],
            [
              88.0667,
              22.7311
            ],
            [
              88.1612,
              22.5726
            ],
            [
              88.1509,
              22.4591
            ],
            [
              88.1707,
              22.2636
            ],
            [
              88.3639,
              22.2557
            ],
            [
              88.4652,
              22.4105
            ],
            [
              88.5769,
              22.4591
            ],
            [
              88.7504,
              22.5726
            ]
          ]
        ]
      }
    },
    {
      "type": "Feature",
      "id": "WB_S24P",
      "properties": {
        "id": "WB_S24P",
        "name": "South 24 Parganas",
        "state": "West Bengal",
        "elevation_m": 6.0,
        "coastal_dist_km": 5.0,
        "typical_regime": "COASTAL",
        "neighbors": [
          "WB_KOL",
          "OD_BLS"
        ],
        "lat": 22.1352,
        "lon": 88.5448
      },
      "geometry": {
        "type": "Polygon",
        "coordinates": [
          [
            [
              88.9097,
              22.1352
            ],
            [
              88.7339,
              22.2363
            ],
            [
              88.656,
              22.3136
            ],
            [
              88.5448,
              22.4769
            ],
            [
              88.3624,
              22.4279
            ],
            [
              88.3557,
              22.2363
            ],
            [
              88.3224,
              22.1352
            ],
            [
              88.2253,
              21.9643
            ],
            [
              88.3624,
              21.8425
            ],
            [
              88.5448,
              21.9329
            ],
            [
              88.656,
              21.9568
            ],
            [
              88.8643,
              21.9643
            ],
            [
              88.9097,
              22.1352
            ]
          ]
        ]
      }
    },
    {
      "type": "Feature",
      "id": "WB_DJL",
      "properties": {
        "id": "WB_DJL",
        "name": "Darjeeling",
        "state": "West Bengal",
        "elevation_m": 2042.0,
        "coastal_dist_km": 600.0,
        "typical_regime": "OROGRAPHIC",
        "neighbors": [
          "WB_JPG"
        ],
        "lat": 27.041,
        "lon": 88.2663
      },
      "geometry": {
        "type": "Polygon",
        "coordinates": [
          [
            [
              88.516,
              27.041
            ],
            [
              88.4508,
              27.1359
            ],
            [
              88.4468,
              27.3195
            ],
            [
              88.2663,
              27.3952
            ],
            [
              88.1414,
              27.2336
            ],
            [
              88.0818,
              27.1359
            ],
            [
              87.9053,
              27.041
            ],
            [
              87.9219,
              26.8639
            ],
            [
              88.1414,
              26.8484
            ],
            [
              88.2663,
              26.8512
            ],
            [
              88.4468,
              26.7625
            ],
            [
              88.6107,
              26.8639
            ],
            [
              88.516,
              27.041
            ]
          ]
        ]
      }
    },
    {
      "type": "Feature",
      "id": "WB_JPG",
      "properties": {
        "id": "WB_JPG",
        "name": "Jalpaiguri",
        "state": "West Bengal",
        "elevation_m": 89.0,
        "coastal_dist_km": 540.0,
        "typical_regime": "BREAK_MONSOON",
        "neighbors": [
          "WB_DJL",
          "AS_GHY"
        ],
        "lat": 26.5414,
        "lon": 88.7196
      },
      "geometry": {
        "type": "Polygon",
        "coordinates": [
          [
            [
              88.9203,
              26.5414
            ],
            [
              89.0078,
              26.6903
            ],
            [
              88.9233,
              26.857
            ],
            [
              88.7196,
              26.7876
            ],
            [
              88.6193,
              26.6969
            ],
            [
              88.4314,
              26.6903
            ],
            [
              88.3122,
              26.5414
            ],
            [
              88.4812,
              26.4183
            ],
            [
              88.6193,
              26.3859
            ],
            [
              88.7196,
              26.2436
            ],
            [
              88.9233,
              26.2258
            ],
            [
              88.958,
              26.4183
            ],
            [
              88.9203,
              26.5414
            ]
          ]
        ]
      }
    },
    {
      "type": "Feature",
      "id": "WB_MSD",
      "properties": {
        "id": "WB_MSD",
        "name": "Murshidabad",
        "state": "West Bengal",
        "elevation_m": 19.0,
        "coastal_dist_km": 240.0,
        "typical_regime": "ACTIVE_MONSOON",
        "neighbors": [
          "WB_KOL",
          "WB_JPG"
        ],
        "lat": 24.1754,
        "lon": 88.2802
      },
      "geometry": {
        "type": "Polygon",
        "coordinates": [
          [
            [
              88.5784,
              24.1754
            ],
            [
              88.6295,
              24.3594
            ],
            [
              88.4292,
              24.4109
            ],
            [
              88.2802,
              24.3514
            ],
            [
              88.1311,
              24.411
            ],
            [
              87.9309,
              24.3594
            ],
            [
              87.9821,
              24.1754
            ],
            [
              88.1131,
              24.0874
            ],
            [
              88.1311,
              23.9398
            ],
            [
              88.2802,
              23.8074
            ],
            [
              88.4292,
              23.9399
            ],
            [
              88.4473,
              24.0874
            ],
            [
              88.5784,
              24.1754
            ]
          ]
        ]
      }
    },
    {
      "type": "Feature",
      "id": "AS_GHY",
      "properties": {
        "id": "AS_GHY",
        "name": "Kamrup (Guwahati)",
        "state": "Assam",
        "elevation_m": 55.0,
        "coastal_dist_km": 420.0,
        "typical_regime": "OROGRAPHIC",
        "neighbors": [
          "WB_JPG",
          "ML_SO"
        ],
        "lat": 26.1445,
        "lon": 91.7362
      },
      "geometry": {
        "type": "Polygon",
        "coordinates": [
          [
            [
              92.1423,
              26.1445
            ],
            [
              92.0233,
              26.2933
            ],
            [
              91.8362,
              26.2999
            ],
            [
              91.7362,
              26.3909
            ],
            [
              91.5332,
              26.4602
            ],
            [
              91.4491,
              26.2933
            ],
            [
              91.5363,
              26.1445
            ],
            [
              91.4985,
              26.0213
            ],
            [
              91.5332,
              25.8288
            ],
            [
              91.7362,
              25.8469
            ],
            [
              91.8362,
              25.9891
            ],
            [
              91.9739,
              26.0213
            ],
            [
              92.1423,
              26.1445
            ]
          ]
        ]
      }
    },
    {
      "type": "Feature",
      "id": "ML_SO",
      "properties": {
        "id": "ML_SO",
        "name": "East Khasi Hills (Sohra/Cherrapunji)",
        "state": "Meghalaya",
        "elevation_m": 1484.0,
        "coastal_dist_km": 320.0,
        "typical_regime": "OROGRAPHIC",
        "neighbors": [
          "AS_GHY"
        ],
        "lat": 25.2986,
        "lon": 91.7328
      },
      "geometry": {
        "type": "Polygon",
        "coordinates": [
          [
            [
              92.0883,
              25.2986
            ],
            [
              91.9145,
              25.3934
            ],
            [
              91.8559,
              25.4914
            ],
            [
              91.7328,
              25.6529
            ],
            [
              91.555,
              25.577
            ],
            [
              91.5511,
              25.3934
            ],
            [
              91.4866,
              25.2986
            ],
            [
              91.3934,
              25.1214
            ],
            [
              91.555,
              25.0202
            ],
            [
              91.7328,
              25.1089
            ],
            [
              91.8559,
              25.1058
            ],
            [
              92.0722,
              25.1214
            ],
            [
              92.0883,
              25.2986
            ]
          ]
        ]
      }
    },
    {
      "type": "Feature",
      "id": "MP_BPL",
      "properties": {
        "id": "MP_BPL",
        "name": "Bhopal",
        "state": "Madhya Pradesh",
        "elevation_m": 527.0,
        "coastal_dist_km": 550.0,
        "typical_regime": "ACTIVE_MONSOON",
        "neighbors": [
          "MP_JBL",
          "MH_NGP"
        ],
        "lat": 23.2599,
        "lon": 77.4126
      },
      "geometry": {
        "type": "Polygon",
        "coordinates": [
          [
            [
              77.6367,
              23.2599
            ],
            [
              77.6034,
              23.3611
            ],
            [
              77.5966,
              23.5527
            ],
            [
              77.4126,
              23.6015
            ],
            [
              77.3005,
              23.4382
            ],
            [
              77.2218,
              23.3611
            ],
            [
              77.0446,
              23.2599
            ],
            [
              77.0906,
              23.0891
            ],
            [
              77.3005,
              23.0816
            ],
            [
              77.4126,
              23.0575
            ],
            [
              77.5966,
              22.9671
            ],
            [
              77.7346,
              23.0891
            ],
            [
              77.6367,
              23.2599
            ]
          ]
        ]
      }
    },
    {
      "type": "Feature",
      "id": "MP_JBL",
      "properties": {
        "id": "MP_JBL",
        "name": "Jabalpur",
        "state": "Madhya Pradesh",
        "elevation_m": 411.0,
        "coastal_dist_km": 590.0,
        "typical_regime": "ACTIVE_MONSOON",
        "neighbors": [
          "MP_BPL",
          "MH_NGP"
        ],
        "lat": 23.1815,
        "lon": 79.9864
      },
      "geometry": {
        "type": "Polygon",
        "coordinates": [
          [
            [
              80.1901,
              23.1815
            ],
            [
              80.2851,
              23.34
            ],
            [
              80.1805,
              23.4905
            ],
            [
              79.9864,
              23.4084
            ],
            [
              79.8846,
              23.3436
            ],
            [
              79.6877,
              23.34
            ],
            [
              79.5983,
              23.1815
            ],
            [
              79.7726,
              23.068
            ],
            [
              79.8846,
              23.0194
            ],
            [
              79.9864,
              22.8644
            ],
            [
              80.1805,
              22.8725
            ],
            [
              80.2002,
              23.068
            ],
            [
              80.1901,
              23.1815
            ]
          ]
        ]
      }
    },
    {
      "type": "Feature",
      "id": "RJ_JDH",
      "properties": {
        "id": "RJ_JDH",
        "name": "Jodhpur",
        "state": "Rajasthan",
        "elevation_m": 231.0,
        "coastal_dist_km": 410.0,
        "typical_regime": "BREAK_MONSOON",
        "neighbors": [
          "RJ_BKN",
          "GJ_AMD"
        ],
        "lat": 26.2389,
        "lon": 73.0243
      },
      "geometry": {
        "type": "Polygon",
        "coordinates": [
          [
            [
              73.3507,
              26.2389
            ],
            [
              73.3774,
              26.4218
            ],
            [
              73.1644,
              26.4565
            ],
            [
              73.0243,
              26.4172
            ],
            [
              72.8611,
              26.4924
            ],
            [
              72.6712,
              26.4218
            ],
            [
              72.7442,
              26.2389
            ],
            [
              72.8522,
              26.1498
            ],
            [
              72.8611,
              25.9854
            ],
            [
              73.0243,
              25.8732
            ],
            [
              73.1644,
              26.0213
            ],
            [
              73.1964,
              26.1498
            ],
            [
              73.3507,
              26.2389
            ]
          ]
        ]
      }
    },
    {
      "type": "Feature",
      "id": "RJ_BKN",
      "properties": {
        "id": "RJ_BKN",
        "name": "Bikaner",
        "state": "Rajasthan",
        "elevation_m": 242.0,
        "coastal_dist_km": 600.0,
        "typical_regime": "BREAK_MONSOON",
        "neighbors": [
          "RJ_JDH"
        ],
        "lat": 28.0229,
        "lon": 73.3119
      },
      "geometry": {
        "type": "Polygon",
        "coordinates": [
          [
            [
              73.7286,
              28.0229
            ],
            [
              73.5837,
              28.1614
            ],
            [
              73.4117,
              28.1754
            ],
            [
              73.3119,
              28.2898
            ],
            [
              73.1035,
              28.3415
            ],
            [
              73.0401,
              28.1614
            ],
            [
              73.1124,
              28.0229
            ],
            [
              73.0501,
              27.8894
            ],
            [
              73.1035,
              27.7043
            ],
            [
              73.3119,
              27.7458
            ],
            [
              73.4117,
              27.8704
            ],
            [
              73.5737,
              27.8894
            ],
            [
              73.7286,
              28.0229
            ]
          ]
        ]
      }
    },
    {
      "type": "Feature",
      "id": "GJ_AMD",
      "properties": {
        "id": "GJ_AMD",
        "name": "Ahmedabad",
        "state": "Gujarat",
        "elevation_m": 53.0,
        "coastal_dist_km": 80.0,
        "typical_regime": "BREAK_MONSOON",
        "neighbors": [
          "RJ_JDH",
          "MH_MUM"
        ],
        "lat": 23.0225,
        "lon": 72.5714
      },
      "geometry": {
        "type": "Polygon",
        "coordinates": [
          [
            [
              72.9001,
              23.0225
            ],
            [
              72.7417,
              23.113
            ],
            [
              72.7026,
              23.2316
            ],
            [
              72.5714,
              23.3855
            ],
            [
              72.407,
              23.2845
            ],
            [
              72.4011,
              23.113
            ],
            [
              72.3091,
              23.0225
            ],
            [
              72.2298,
              22.841
            ],
            [
              72.407,
              22.7605
            ],
            [
              72.5714,
              22.8415
            ],
            [
              72.7026,
              22.8134
            ],
            [
              72.913,
              22.841
            ],
            [
              72.9001,
              23.0225
            ]
          ]
        ]
      }
    }
  ]
}